[{"OBJECT_NAME":"YAOGAN-43 03A","OBJECT_ID":"2024-190A","EPOCH":"2026-03-09T13:01:38.517888","MEAN_MOTION":15.2296971,"ECCENTRICITY":0.00052894,"INCLINATION":34.99,"RA_OF_ASC_NODE":104.4598,"ARG_OF_PERICENTER":156.9763,"MEAN_ANOMALY":203.119,"EPHEMERIS_TYPE":0,"CLASSIFICATION_TYPE":"U","NORAD_CAT_ID":61617,"ELEMENT_SET_NO":999,"REV_AT_EPOCH":7666,"BSTAR":0.00039712006,"MEAN_MOTION_DOT":9.537e-5,"MEAN_MOTION_DDOT":0},{"OBJECT_NAME":"OBJECT AJ","OBJECT_ID":"2025-313AJ","EPOCH":"2026-03-09T22:21:21.807360","MEAN_MOTION":15.2138311,"ECCENTRICITY":0.00131371,"INCLINATION":97.4064,"RA_OF_ASC_NODE":145.2514,"ARG_OF_PERICENTER":356.4876,"MEAN_ANOMALY":3.6265,"EPHEMERIS_TYPE":0,"CLASSIFICATION_TYPE":"U","NORAD_CAT_ID":67280,"ELEMENT_SET_NO":999,"REV_AT_EPOCH":1085,"BSTAR":0.00031142343,"MEAN_MOTION_DOT":6.931e-5,"MEAN_MOTION_DDOT":0}]
